H1 CPF 01  gfz 2021 04 08 12  5982 tandemx   
H2 1003001  6202 36605    2021 04 08 12 59 42 2021 04 13 00 00 42   120 1 1  0 0 0
H9
10 0 59315  85662.000000  0     596904.525  -6696929.935  -1512368.373
10 0 59315  85782.000000  0     428955.666  -6849162.897   -618906.154
10 0 59315  85902.000000  0     251924.685  -6878743.364    285442.047
10 0 59315  86022.000000  0      71053.807  -6784974.852   1184764.975
10 0 59315  86142.000000  0    -108351.737  -6569432.577   2063225.644
10 0 59315  86262.000000  0    -281057.782  -6235937.960   2905350.188
10 0 59315  86382.000000  0    -442033.035  -5790485.933   3696310.054
10 0 59316    102.000000  0    -586575.377  -5241127.932   4422187.747
10 0 59316    222.000000  0    -710429.710  -4597817.897   5070224.353
10 0 59316    342.000000  0    -809893.830  -3872222.025   5629043.840
10 0 59316    462.000000  0    -881910.611  -3077497.536   6088851.347
10 0 59316    582.000000  0    -924144.187  -2228044.173   6441599.394
10 0 59316    702.000000  0    -935038.498  -1339238.326   6681120.782
10 0 59316    822.000000  0    -913858.049   -427152.765   6803231.343
10 0 59316    942.000000  0    -860710.622    491735.428   6805799.114
10 0 59316   1062.000000  0    -776549.815   1400842.379   6688779.361
10 0 59316   1182.000000  0    -663157.496   2283776.358   6454215.261
10 0 59316   1302.000000  0    -523107.208   3124633.034   6106204.358
10 0 59316   1422.000000  0    -359709.310   3908283.048   5650831.547
10 0 59316   1542.000000  0    -176938.614   4620647.403   5096067.795
10 0 59316   1662.000000  0      20654.724   5248955.981   4451637.424
10 0 59316   1782.000000  0     228049.420   5781985.362   3728851.249
10 0 59316   1902.000000  0     439869.339   6210265.453   2940412.290
10 0 59316   2022.000000  0     650510.405   6526263.325   2100195.619
10 0 59316   2142.000000  0     854276.511   6724524.774   1222996.746
10 0 59316   2262.000000  0    1045517.957   6801774.035    324265.347
10 0 59316   2382.000000  0    1218771.374   6756970.552   -580174.698
10 0 59316   2502.000000  0    1368895.932   6591320.754  -1474412.529
10 0 59316   2622.000000  0    1491202.521   6308245.213  -2342737.721
10 0 59316   2742.000000  0    1581573.238   5913302.434  -3169922.861
10 0 59316   2862.000000  0    1636568.137   5414070.548  -3941495.048
10 0 59316   2982.000000  0    1653516.952   4819990.250  -4643990.194
10 0 59316   3102.000000  0    1630593.358   4142173.695  -5265184.423
10 0 59316   3222.000000  0    1566870.371   3393186.458  -5794299.182
10 0 59316   3342.000000  0    1462356.302   2586806.763  -6222179.209
10 0 59316   3462.000000  0    1318010.024   1737766.773  -6541439.053
10 0 59316   3582.000000  0    1135736.874    861483.665  -6746578.946
10 0 59316   3702.000000  0     918364.727    -26217.539  -6834070.749
10 0 59316   3822.000000  0     669600.341   -909385.013  -6802411.523
10 0 59316   3942.000000  0     393966.901  -1772220.003  -6652144.956
10 0 59316   4062.000000  0      96724.511  -2599350.742  -6385852.714
10 0 59316   4182.000000  0    -216226.794  -3376100.733  -6008117.279
10 0 59316   4302.000000  0    -538460.054  -4088747.069  -5525450.797
10 0 59316   4422.000000  0    -863147.561  -4724762.737  -4946193.621
10 0 59316   4542.000000  0   -1183199.790  -5273041.499  -4280382.182
10 0 59316   4662.000000  0   -1491414.663  -5724099.968  -3539585.691
10 0 59316   4782.000000  0   -1780633.640  -6070251.951  -2736713.495
10 0 59316   4902.000000  0   -2043901.497  -6305751.282  -1885795.954
10 0 59316   5022.000000  0   -2274626.185  -6426899.741  -1001741.072
10 0 59316   5142.000000  0   -2466734.663  -6432115.847   -100070.614
10 0 59316   5262.000000  0   -2614820.791  -6321961.059    803358.641
10 0 59316   5382.000000  0   -2714281.029  -6099122.617   1692641.874
10 0 59316   5502.000000  0   -2761434.384  -5768353.298   2552115.488
10 0 59316   5622.000000  0   -2753623.236  -5336369.201   3366641.729
10 0 59316   5742.000000  0   -2689292.229  -4811708.760   4121882.082
10 0 59316   5862.000000  0   -2568043.890  -4204557.214   4804553.706
10 0 59316   5982.000000  0   -2390670.539  -3526541.107   5402664.706
10 0 59316   6102.000000  0   -2159160.400  -2790496.598   5905723.661
10 0 59316   6222.000000  0   -1876678.110  -2010219.495   6304918.940
10 0 59316   6342.000000  0   -1547520.926  -1200202.477   6593268.189
10 0 59316   6462.000000  0   -1177051.655   -375361.670   6765734.821
10 0 59316   6582.000000  0    -771610.729    449239.340   6819308.622
10 0 59316   6702.000000  0    -338407.979   1258663.307   6753055.551
10 0 59316   6822.000000  0     114605.666   2038369.743   6568133.496
10 0 59316   6942.000000  0     578883.985   2774476.104   6267773.034
10 0 59316   7062.000000  0    1045445.790   3454005.008   5857224.242
10 0 59316   7182.000000  0    1505047.359   4065115.564   5343670.496
10 0 59316   7302.000000  0    1948364.534   4597314.386   4736108.860
10 0 59316   7422.000000  0    2366181.980   5041642.607   4045197.768
10 0 59316   7542.000000  0    2749584.440   5390832.716   3283073.759
10 0 59316   7662.000000  0    3090147.134   5639436.246   2463142.099
10 0 59316   7782.000000  0    3380121.227   5783917.699   1599837.493
10 0 59316   7902.000000  0    3612606.723   5822706.358    708364.031
10 0 59316   8022.000000  0    3781710.252   5756210.310   -195579.337
10 0 59316   8142.000000  0    3882684.603   5586789.438  -1096083.991
10 0 59316   8262.000000  0    3912044.788   5318689.301  -1977319.533
10 0 59316   8382.000000  0    3867658.956   4957937.880  -2823819.695
10 0 59316   8502.000000  0    3748810.696   4512207.107  -3620759.471
10 0 59316   8622.000000  0    3556231.730   3990643.441  -4354216.582
10 0 59316   8742.000000  0    3292105.994   3403673.943  -5011412.327
10 0 59316   8862.000000  0    2960044.755   2762791.519  -5580929.548
10 0 59316   8982.000000  0    2565033.543   2080324.401  -6052902.161
10 0 59316   9102.000000  0    2113353.085   1369196.175  -6419175.521
10 0 59316   9222.000000  0    1612476.255    642680.820  -6673434.806
10 0 59316   9342.000000  0    1070944.420    -85841.584  -6811303.170
10 0 59316   9462.000000  0     498222.247   -803126.764  -6830410.343
10 0 59316   9582.000000  0     -95465.480  -1496301.699  -6730427.217
10 0 59316   9702.000000  0    -699311.166  -2153088.617  -6513070.333
10 0 59316   9822.000000  0   -1302116.182  -2762017.612  -6182077.215
10 0 59316   9942.000000  0   -1892493.677  -3312624.785  -5743148.575
10 0 59316  10062.000000  0   -2459078.739  -3795631.370  -5203860.277
10 0 59316  10182.000000  0   -2990744.993  -4203103.690  -4573545.307
10 0 59316  10302.000000  0   -3476823.553  -4528589.602  -3863143.017
10 0 59316  10422.000000  0   -3907318.300  -4767227.468  -3085018.535
10 0 59316  10542.000000  0   -4273114.329  -4915826.176  -2252754.580
10 0 59316  10662.000000  0   -4566174.365  -4972913.114  -1380917.558
10 0 59316  10782.000000  0   -4779717.842  -4938748.591   -484801.998
10 0 59316  10902.000000  0   -4908377.737  -4815305.806    419841.895
10 0 59316  11022.000000  0   -4948330.968  -4606216.146   1317092.593
10 0 59316  11142.000000  0   -4897397.817  -4316679.710   2191147.182
10 0 59316  11262.000000  0   -4755107.620  -3953343.721   3026608.800
10 0 59316  11382.000000  0   -4522729.781  -3524152.587   3808765.433
10 0 59316  11502.000000  0   -4203269.391  -3038173.609   4523855.002
10 0 59316  11622.000000  0   -3801426.599  -2505401.825   5159310.198
10 0 59316  11742.000000  0   -3323523.095  -1936551.140   5703977.495
10 0 59316  11862.000000  0   -2777398.044  -1342836.748   6148310.120
10 0 59316  11982.000000  0   -2172274.030   -735751.276   6484532.001
10 0 59316  12102.000000  0   -1518595.551   -126839.365   6706768.059
10 0 59316  12222.000000  0    -827844.867    472521.515   6811139.070
10 0 59316  12342.000000  0    -112340.035   1051332.079   6795824.996
10 0 59316  12462.000000  0     614984.413   1599172.631   6661095.031
10 0 59316  12582.000000  0    1340810.877   2106390.823   6409303.185
10 0 59316  12702.000000  0    2051681.789   2564271.660   6044848.891
10 0 59316  12822.000000  0    2734248.581   2965188.020   5574105.460
10 0 59316  12942.000000  0    3375524.335   3302730.657   5005315.472
10 0 59316  13062.000000  0    3963134.344   3571814.101   4348450.917
10 0 59316  13182.000000  0    4485557.489   3768755.565   3615043.937
10 0 59316  13302.000000  0    4932360.655   3891328.463   2817988.607
10 0 59316  13422.000000  0    5294412.895   3938784.511   1971311.533
10 0 59316  13542.000000  0    5564077.159   3911845.494   1089922.395
10 0 59316  13662.000000  0    5735374.514   3812665.204    189344.809
10 0 59316  13782.000000  0    5804115.792   3644761.222   -714565.841
10 0 59316  13902.000000  0    5767996.975   3412918.784  -1605910.316
10 0 59316  14022.000000  0    5626656.565   3123069.103  -2469033.259
10 0 59316  14142.000000  0    5381693.345   2782146.106  -3288803.907
10 0 59316  14262.000000  0    5036646.158   2397925.418  -4050884.409
10 0 59316  14382.000000  0    4596935.435   1978849.147  -4741981.909
10 0 59316  14502.000000  0    4069766.715   1533840.494  -5350076.021
10 0 59316  14622.000000  0    3464003.239   1072115.059  -5864619.599
10 0 59316  14742.000000  0    2790008.942    602992.075  -6276712.118
10 0 59316  14862.000000  0    2059465.006    135709.055  -6579241.981
10 0 59316  14982.000000  0    1285165.957   -320755.837  -6766997.613
10 0 59316  15102.000000  0     480797.313   -757852.260  -6836749.304
10 0 59316  15222.000000  0    -339303.650  -1167613.706  -6787297.628
10 0 59316  15342.000000  0   -1160396.697  -1542798.201  -6619490.971
10 0 59316  15462.000000  0   -1967597.199  -1877013.263  -6336213.575
10 0 59316  15582.000000  0   -2746140.150  -2164823.298  -5942340.812
10 0 59316  15702.000000  0   -3481644.510  -2401837.286  -5444664.217
99
